STRONG GROUND MOTION RECORDS OF TURKIYE
PLACE                   : DENIZLI CARDAK ILCE GIDA TARIM VE HAYVANCILIK MUDURLUGU
EARTHQUAKE DATE         : 2019/08/08 11:25:30 (GMT)
EPICENTER COORDINATES   : 37.85100N-29.58400E
EARTHQUAKE DEPTH (km)   : 10.92
EARTHQUAKE MAGNITUDE    : 6.0 Mw
STATION ID              : 2005
STATION COORDINATES     : 37.82446N-29.66813E
STATION ALTITUDE (m)    : 863
RECORDER TYPE           : GeoSig gmsplus
RECORDER SERIAL NO      : 52709/101159
RECORD TIME             : 08/08/2019 11:25:27.00 (GMT)
NUMBER OF DATA          : 3776
SAMPLING INTERVAL (sec) : 0.01
RAW PGA VALUES (gal)    : (N-S) 423.363542 (E-W) 274.004174 (U-D) 347.534292
Copyright EARTHQUAKE DEPARTMENT
DISASTER AND EMERGENCY MANAGEMENT PRESIDENCY
       N-S          E-W          U-D
[...]
   -0.004418     -0.017932    -0.018191
    0.000260     -0.026248     0.012474
    0.015852     -0.005717     0.030406
    0.018191     -0.011435    -0.008316
    0.011954     -0.012734    -0.017672
    0.028067     -0.011694    -0.030665
    0.002079     -0.017412     0.004158
   -0.020790     -0.005198     0.034824
    0.004938     -0.005457     0.008836
    0.007796     -0.006237     0.015593
    0.031185     -0.037422    -0.017412
    0.034824     -0.021050    -0.038722
   -0.016892      0.008576     0.000520
   -0.000260     -0.016112    -0.004678
    0.010655     -0.015593     0.011175
   -0.003119     -0.005198     0.029366
    0.025728      0.003378     0.011435
    0.035083     -0.026767    -0.023909
    0.010135     -0.027027    -0.066529
    0.003638     -0.012474    -0.104211
    0.012994     -0.025988    -0.172558
    0.032225      0.013254    -0.502862
    0.210240      0.041580    -2.220129
    0.520274      0.053275    -4.677786
    0.726876      0.018711    -4.641403
    0.737531      0.020790    -3.324866
    0.930620     -0.053015    -5.283559
    1.805885     -0.147610   -11.035417
    2.798096      0.055614   -17.956721
    3.397892     -0.128899   -18.846020
    3.361249     -0.446988    -9.788267
    2.752877     -0.390855    -6.124521
    3.362549     -1.310820   -13.183300
    4.595665     -1.735718   -11.048671
    3.283026     -1.050683    -0.809777
    1.392941     -2.023662     3.093056
    2.082654     -1.957913     0.297299
    0.830827     -0.580305    -2.619560
   -0.826149     -1.819139     7.022656
    1.976884     -2.379694    21.006897
    1.442057     -1.471683    17.402663
   -0.804059     -1.970128     7.596724
    0.608632     -0.704527    10.192376
   -0.776512     -0.418662    16.411233
   -1.147097     -2.436087    15.445530
    1.195694      0.054054     2.977151
   -0.183733      1.416330   -12.902633
    0.363048     -1.055101    -9.578027
    5.162457     -1.070433    10.319456
    2.886714      0.103691    22.927908
   -2.228185      1.561601     9.126880
    2.831620      2.025481   -44.180909
    4.792132     -0.351614   -67.981484
    1.302763      1.414511   -25.810984
    2.336554      4.026534    -4.957933
    2.724031      1.518981     2.327458
    0.100832      1.671009     8.712636
   -2.722471     -2.319922    10.665612
    5.866463     -3.284585    35.248677
    8.493300      5.658302     7.783056
   -9.462381      5.715215   -29.993704
  -14.771928      4.322274   -18.045079
   -0.938936     -0.896056   -14.874320
   15.907591    -11.506834   -23.483005
   25.655057     -5.627377   -32.102606
   14.318443      3.833965   -28.275657
    4.792132      1.056400   -27.026688
   17.809631     -2.312126    -1.741436
   12.613130      1.774180    16.899282
  -10.000587     -0.275729   -24.056034
   -1.822517     -3.304076   -28.625711
    9.562174     -2.745601   -15.421881
    7.059819    -11.847533     1.552505
   10.278395    -12.562454    30.020991
   -4.078250     -7.859720    37.732321
  -15.251142     -8.945746    65.492902
   -2.489622     -4.758348    82.589430
   -3.737031      5.159598    78.657491
  -18.983235      5.619320    67.604663
  -18.923204      3.320189    47.821526
   -4.851124      6.057473     9.718360
    2.844354     -7.858421   -50.256314
   11.996182     -7.877132  -110.250218
   25.999654      5.044472  -144.414169
   19.554445      2.844094   -88.887809
    9.204324      2.068621     3.761460
    7.699636     -0.970121    83.086835
   -7.539811     10.800748   123.528894
  -19.816661     14.099887    58.973108
   -9.213419     -4.960792    13.746454
   -2.593572     11.568685    25.064097
  -22.360337     18.081982   -20.898269
  -26.318523     -4.541091   -71.575843
   -4.021856     -1.606040  -101.612167
   -0.290283    -11.217851   -94.819762
   20.657883    -17.043773   -22.256386
   48.227974      9.536966     0.233629
   22.196095     17.179949     3.130478
   10.071013      7.882329     1.078230
   24.501463     -3.446489   -75.309236
    9.717841    -16.916953   -84.442353
   -2.445183    -13.254507   -20.931013
  -11.021643      1.994816    20.326020
   -2.981049     -2.486503    65.860628
   23.275104     -2.149183    32.288678
    0.643455      0.724797   -43.824098
  -10.576734    -10.312699    30.585444
   -4.835271     10.673928   138.536790
  -37.400978     17.057287   147.518140
  -20.297173     -8.857908    83.660643
   19.652678    -17.260511   -76.695420
    3.580325    -35.874720  -123.631025
   10.206149    -41.578761   -31.463308
   32.234623    -10.309061   -27.930281
   -4.213906     -9.229532     4.915573
  -12.526851    -13.765945    63.720541
   18.347316     18.712184    54.545064
   21.504302     29.298013    71.559731
   19.616555     31.975786    12.682257
    5.066042     45.852438  -121.001330
   -4.227679     32.274644  -172.883954
    5.700402      7.101659  -143.900392
    6.141153    -19.699716     0.814714
  -17.085613    -19.568218   155.034562
  -50.080117      6.887260   111.698773
  -48.240188     -3.254440    54.795065
  -22.212727      3.982095    77.010651
    3.814475     14.166415    59.377217
   23.944547    -16.250109    25.733280
   10.614676    -10.102199   -96.748309
   -1.285352     -8.475109  -199.671036
   42.587603    -26.583598  -141.347880
   90.966825    -22.622813   -49.764366
   54.414865     -0.765858    46.795012
  -26.176631     23.469752   118.263526
  -47.145846     38.620061    91.819742
  -42.447010     45.693653    64.750174
  -20.252734     12.097014    38.579780
   22.863199      2.003652   -35.551174
    9.554638     12.181215   -80.570966
  -22.097081    -27.454446   -99.482995
   10.474083    -60.918287   -76.746096
   74.552734    -71.591696   -42.902574
   70.645224    -49.253448   -33.450848
    9.329324      1.251828    11.536980
  -37.191257     34.526479    65.135052
  -52.627691     48.787749    61.846308
  -37.269740     31.022817    23.578900
    2.845913     16.538832    -7.946259
   37.099261     24.817994   -70.394702
   38.633575     -8.376096   -53.385493
   42.800183    -30.687316   -13.415111
   19.744935     -7.923390   -73.305065
  -51.774255      4.238074   -20.070820
  -63.576569     22.259245    12.703567
  -27.617129     20.906845   -26.931573
    5.944686      5.311886    80.191026
   51.008917      7.043446    95.960102
   36.832367    -11.209794    27.534228
   11.592593    -29.832320    78.758843
   13.670050    -21.898016    65.156361
  -46.866478    -34.923571    52.902381
  -79.210250    -33.723719    62.099688
  -60.437775     26.660522   -47.212374
  -37.172026     26.727050   -34.688642
   43.099301      0.265854    34.282974
   83.329040     20.949465    32.155101
   48.857916      7.435341    87.005520
   41.405943    -15.231911    50.007871
   33.492948     -6.627643   -95.161240
   -3.446749     -0.990131  -131.748543
  -25.020958     14.400564   -99.373327
  -70.192258     42.286146   -70.736700
  -76.393183      5.207415     3.201165
   -1.731820    -36.603675    -3.183233
   39.147611    -18.896436   -29.811270
   55.171627      7.245891     0.424379
   29.476029     34.947219   -10.142480
  -27.442491     17.886035   -14.036996
  -48.894298    -15.177856    -8.290856
  -34.736719     -6.594899    19.517542
  -17.675014      4.484438    22.136323
  -17.796897      6.326186   -12.222015
    6.007577     24.429997    -0.533527
   24.345797     29.664700    31.002546
   18.547162     -4.370092    86.918721
    4.050183    -28.873374    84.332945
  -18.556517    -41.998202     2.975332
  -22.941942    -41.321483    -8.955881
   -0.488309    -33.890040   -40.952717
  -17.258951    -35.185007   -86.359726
  -54.284927     11.954082   -48.757863
  -30.726817     39.403330   -49.604542
    6.515636     11.421074   -60.548742
   34.478401     20.119677    -2.622419
   39.472458     15.576248   112.224504
   -3.142433    -16.008683   157.725328
  -34.739838    -28.193276   154.446720
  -19.138122    -33.464621   137.127737
  -34.146798    -38.658263   -15.959826
  -29.624419    -46.193137  -128.892755
   30.924323    -14.275044  -155.678537
    9.437953     20.014947   -79.962594
   -0.648653     24.202865    76.601864
   52.230859     32.509573    71.419137
   17.523246     18.136556    58.951278
  -29.737985     10.590767    47.850892
   -4.419468     28.155074   -68.931075
  -19.382926     28.096342   -83.643751
  -60.784970     15.711904   -48.630523
  -54.152909      9.879224  -107.662623
  -12.193689     -1.173085  -157.306407
   43.668172    -20.768590  -108.593762
   63.875947    -18.535207  -117.138778
   21.633721     -4.268740  -128.458241
  -42.200646     23.619961   -35.291037
  -71.168876      2.155680    48.451728
  -69.459665    -54.358732   253.748840
  -34.699037      3.463121   347.534292
   -2.958960     48.363629   182.824509
   -8.872201     27.117645    86.567627
   12.281007     34.437081   -72.241128
   13.059079     17.396946  -161.621404
  -14.105864      4.240673   -59.874881
    0.970121     21.426599  -107.254876
   -3.872947     18.202565   -54.875108
   34.128867    -15.655770    37.909297
  121.062661    -28.372071   -61.790694
  140.359568     -9.308794    -2.654124
  106.710174     17.601729    71.484626
   -7.148437     51.080903    92.114442
  -93.581188     37.313400   135.818737
  -87.137278      6.327745    61.139443
 -101.637115    -19.253767    54.390957
  -92.664342    -75.435536    18.046119
  -36.554559    -80.247419  -101.705203
    8.201198    -43.048885  -127.301528
    9.762799    -24.484571  -152.153046
    1.707652     -3.300438  -112.302207
   25.731981     15.671882   -65.494721
    4.935064     20.476748   -38.418137
  -40.412433     57.579648   101.507177
  -37.422548    112.583394   137.632678
  -63.513159    110.753080   134.650330
  -89.651848     89.494362   189.791552
  -67.093485     45.632062   101.803176
  -37.161631      3.774454   -37.760128
   25.573196     -0.525211  -119.294458
   70.233059     -2.005211   -94.849388
   69.429259      1.328231   -49.156514
   72.195390     -7.691839   -74.743224
   69.316732     14.847813   -76.613559
   45.430138     26.106204  -101.038878
   14.480346     14.007370   -30.482273
    8.836338     62.548236    59.565108
  -14.370418     42.929601    43.571757
  -55.241794    -20.829401   100.440122
  -27.536567    -11.800235    57.947373
   32.453440    -43.823578   -30.531130
   77.114602    -69.036065   -12.098574
  104.374140    -36.274151     9.713942
   79.509628    -34.931887    75.929822
   56.070282    -50.380535   104.031622
   53.393029    -61.995997    77.133053
  -16.206190    -46.767725    52.830655
  -63.945594     -2.603448    -3.798622
  -29.634814     38.830561   -10.300485
  -45.218078     31.737219    48.788009
  -78.734675      2.311866    49.382087
  -53.776607     -1.802507    -3.108389
  -38.642411    -17.283640   -53.777127
  -71.335977    -35.271546   -76.771044
  -84.917668    -49.269041   -92.844177
  -72.370287    -44.837358  -132.936181
 -100.579676    -34.171746   -93.458266
  -86.712899    -61.422709   -34.084428
   -7.018238    -76.131227   -15.700729
   18.347056    -36.614071     4.638025
   -3.526531    -33.277770    34.515044
  -24.343978    -45.568652    62.810192
  -46.473284      3.493267   -15.063510
  -64.242114     11.315824   -21.157886
  -83.630498     41.446483    45.573590
 -103.309683     95.561191    27.319050
  -92.689290     83.090993    90.500866
  -68.362724     96.557559    88.413274
  -88.897945     92.541940    -0.344597
 -136.541975     56.216853    24.871528
 -149.349233     31.262943    17.065603
 -151.170451     35.058707    -9.280208
 -149.921482     99.898798    34.819620
  -77.036898    164.388835    66.124143
   47.819967    185.523851    64.716130
  196.852669    108.748129    66.348417
  329.581209    -20.960899   118.170750
  363.552071    -81.967285   138.654255
  344.121847   -134.566130    80.676216
  333.192979   -185.320628     6.948071
  337.053972   -184.333355   -91.362098
  311.911652   -198.818899  -150.239571
  222.119990   -226.537120   -80.910625
  144.601020   -202.283579    -5.091510
   97.484021   -124.912999   -32.022564
   49.130007    -42.760941   -53.755038
   38.623959     31.154834   -27.106990
    4.064476    102.670386    47.487324
 -117.195171    157.422312   101.917262
 -188.565972    197.563173    57.664887
 -171.504267    211.825743    17.281820
 -197.705326    187.430309   -57.014935
 -244.578821    114.921508  -142.971072
 -202.505514      9.561395   -81.363591
 -130.931490    -56.293256    -0.791325
  -80.308230    -93.121985    68.884817
   15.324167   -132.921628   177.940381
  139.796414   -131.731132   116.144749
  196.848252   -106.166511     7.035390
  192.191516    -38.472191     1.714409
  193.164235     43.362037   -33.109109
  158.278866     54.846261   -59.403204
  107.290999     31.488776   -83.653367
   96.410989    -16.567159   -76.040790
  111.143416    -37.936065   -30.348956
   83.891414    -27.238488    -3.813435
  -52.993338    -64.222883    64.130367
 -216.937004    -92.495942    82.290832
 -353.805384    -78.863054    48.194450
 -423.363542    -51.053356    38.540279
 -408.942967    -29.714076     4.870095
 -384.202677    -60.239748     3.039781
 -323.203048    -74.916562    27.999668
 -156.013259     29.132991   -42.125542
   40.986501    160.678571   -79.896585
  168.903158    237.572277    38.888514
  244.197321    251.506102   128.268271
  218.874906    184.557369   132.538829
  155.323285    124.544493    94.036233
  147.470582     93.568194     4.377368
  136.445820     68.461217   -73.103140
  135.695295     69.382481  -102.073968
   94.773504     72.428240  -142.600487
  -19.000907     70.258007  -170.472295
  -81.641139     27.625445   -78.250264
  -44.950925    -18.887860     6.762519
   10.403656    -25.474443    46.311121
   -7.827235    -86.664821   114.959709
  -82.877894   -186.205769   121.363599
 -105.944836   -251.011036    50.284120
  -86.046834   -226.244498   -11.077517
 -101.037579   -119.878142   -89.064266
 -147.079727    -77.705822  -156.696475
 -126.269037    -31.497092  -140.174795
   19.019618     52.370933  -124.670014
  141.731199     57.671124   -63.366069
  174.525337     70.947461    19.078870
  145.076335     35.522587    63.596060
   62.674016    -41.390350   105.770979
    2.471430    -43.927529   125.573346
  -12.207462    -84.574111   137.206480
  -19.754550   -120.327469   116.023906
   -6.088398   -116.165019    74.476070
   27.450028   -118.545232   -26.729649
   -2.528603   -121.580076  -103.178186
  -13.888087   -127.440822  -120.312396
    2.097727    -74.857050  -145.297231
  -25.787595    -12.451747   -59.337456
    8.350368     70.690182    14.729049
   28.604402    190.002052    26.502516
    0.710244    253.394888    50.922898
   -6.198586    274.004174     3.173878
  -75.716463    218.143353    11.891712
 -175.407619    101.374899    67.403258
 -180.832292     -1.943620    55.791434
 -111.614833    -91.703057    97.500913
  -11.539318   -140.864769    77.715957
  113.151485   -116.246101   -47.061906
  178.592932    -37.340427   -97.049766
  153.866415    -19.629289   -92.620683
   77.721155    -84.663249   -63.288625
   36.491928   -137.887098   -24.059673
   26.307868   -150.899399     6.601915
  -36.113807   -131.819230     8.034097
  -18.071587    -61.415692    10.770602
  124.328015     46.051764    49.458491
  196.938429    135.638902     2.891651
  133.879535    212.727776   -67.594527
   62.287579    267.402518   -70.478123
   43.305384    259.905067   -77.860189
   77.838359    149.286343   -50.992285
  121.718850      7.993297    13.246710
   87.693675    -68.278264    67.486678
   37.103159    -91.358460    86.640133
   27.343478    -67.728884    37.737779
   27.547222    -52.643804     9.215758
  -36.087560    -38.863826    27.361670
  -98.410222    -62.512893    25.163370
  -78.261439   -133.883433    50.498779
  -73.182922   -136.566923    64.886349
  -66.449250   -131.692930     3.207402
 -104.315927   -133.897466   -29.658723
 -175.645147   -109.388466   -39.554059
 -166.805431    -56.599651   -40.095123
 -139.649844     40.077711     9.649493
 -116.429574     54.675522    41.083175
 -104.809693     27.610112    33.202145
  -65.785004     58.608760    -7.610758
   20.067702     80.580321     0.883322
   49.077771    117.647357    46.707953
   33.377302    169.244117    48.396634
   61.587471    172.204376    71.018147
   78.478436    146.728893    52.976706
   28.952117    127.899245   -28.262144
    1.407494    109.947462   -90.961108
   -3.752364     88.375592  -115.672292
  -46.494334     76.895265   -55.682286
 -111.021014     80.636195    20.265988
 -111.479177     44.440007     5.191563
  -40.413732    -60.442712   -65.377517
   -1.131764   -152.388494  -119.279645
   -2.351367   -210.412532   -90.049460
   -9.487849   -236.228453     6.726137
    4.332409   -221.842182    29.626498
   36.747128   -172.253752   -40.182442
   71.217473    -68.777747   -65.991866
  106.511888     50.443945   -52.025556
  127.340510    110.865347     7.241473
  143.331001     99.874369   102.967945
  167.156005     87.692115    70.643664
  131.865748     43.501071    14.656543
   41.564208     -6.913768    23.670637
   19.196594      7.063717   -34.638745
   23.450261      5.843074   -60.744949
  -25.867897    -27.759541   -12.761520
 -102.881666    -78.877347   -20.814588
 -110.813112   -112.991921   -18.770136
  -26.876999   -128.261254    23.261590
   29.890273   -112.832876    44.822805
   13.948378    -54.979058    95.269609
  -12.449668    -19.670610    94.921634
    5.496658     15.621466    42.945974
  -17.225167     55.276877    51.171600
  -51.891720     57.611612    52.480601
  -55.586391     35.349509    62.777188
  -74.580281     59.548736    60.825251
  -48.024490     98.198942     6.807998
  -36.250762    103.190140   -38.382014
  -49.633648     66.725499  -108.288147
  -61.187260     -9.654431  -159.156471
  -92.296096    -31.157173  -147.188356
  -71.959681    -24.593200   -94.241535
   32.144186     -0.392154    -3.543163
  147.047242     54.376404    67.105439
  157.226884     99.140737    87.148193
  117.152552    143.089576    72.341701
  113.543640    162.330869    13.028933
  128.373261    160.521345   -61.487678
  150.072990    139.114237   -71.096370
  162.161429     80.105006   -36.529611
  149.958644     -5.394787    -7.877652
   94.030255    -53.474890    -0.011954
   31.508007    -85.655719    -6.891938
   17.796377   -174.558082     6.484971
    9.409107   -232.795738     5.121396
  -44.952744   -244.612085    24.516796
  -80.451942   -202.544755    74.440727
 -106.643386    -74.177212    62.808113
 -175.922696    -13.754510    45.386998
 -197.412964    -19.415411    29.599730
